C/2025 M2 (PANSTARRS),h,11/23.4268/2027,173.2149,305.5344,96.7614,1.002024,2.720299,2000,13.4,4.0
# From MPC188414
C/2025 M3 (PANSTARRS),h,07/05.1547/2026,137.4255,65.2658,195.3768,1.019548,6.531912,2000,9.0,4.0
# From MPEC 2025-V36
C/2025 N2 (ATLAS),h,12/12.7545/2024,81.6638,94.4619,230.1167,1.001538,8.984729,2000,5.1,4.0
# From MPC188414
C/2025 O2 (MAPS),e,134.5433,332.3117,280.2478,2335,0.0000087,0.99902002,0.0000,05/23.7172/2025,2000,g 14.3,4.0
# From MPC188414
A/2025 P1,e,117.7947,342.4183,334.5269,56.79724,0.0023026,0.96169207,0.5261,11/14.0/2025,2000,g 17.1,4.0
# From MPC188414
C/2025 Q1 (ATLAS),e,66.1599,326.9481,280.2327,1251,0.0000223,0.99192779,0.0000,07/11.8892/2024,2000,g  3.8,4.0
# From MPEC 2025-VD2
C/2025 Q3 (ATLAS),e,90.1862,233.1441,218.4528,762.3719,0.0000468,0.99722896,0.0000,02/25.6377/2026,2000,g 12.2,4.0
# From MPEC 2025-VD2
C/2025 R1 (ATLAS),e,110.0272,60.3964,77.5501,165.9267,0.0004611,0.98809589,0.0000,11/23.3348/2025,2000,g 14.0,4.0
# From MPEC 2025-VD2
C/2025 R2 (SWAN),e,4.4729,335.3305,308.3531,85.04463,0.0012567,0.99407260,0.0000,09/12.8433/2025,2000,g 12.4,4.0
# From MPEC 2025-VD2
C/2025 R3 (PANSTARRS),h,04/19.8939/2026,124.7294,38.6921,162.2272,1.000334,0.498581,2000,12.2,4.0
# From MPEC 2025-VD2
A/2025 S2,e,96.6427,34.4731,31.5866,63.31054,0.0019565,0.97336536,0.0000,01/02.4103/2026,2000,g 16.0,2.0
# From MPEC 2025-VD2
A/2025 S3,e,103.5635,36.7300,71.1245,215.6438,0.0003112,0.98959151,0.0000,06/25.0894/2026,2000,g 15.0,2.0
# From MPEC 2025-VD2
C/2025 T1 (ATLAS),e,123.4330,140.4939,114.1413,3880,0.0000041,0.99971419,0.0000,12/02.3765/2025,2000,g 14.7,4.0
# From MPEC 2025-V41
P/2025 U1 (Hogan),e,23.9270,235.5325,255.5199,6.329511,0.0618940,0.33196304,355.6398,11/14.0/2025,2000,g 11.7,4.0
# From MPEC 2025-VD2
C/2025 V1 (Borisov),h,11/16.5402/2025,112.7087,91.8839,47.5667,1.008250,0.462651,2000,16.3,4.0
# From AJ 98, 1083
1P/Halley,e,162.2269,59.5428,112.4528,17.86362,0.0130542,0.96746699,189.4225,11/14.0/2025,2000,g  5.5,3.2
# From MPEC 2025-UQ3
2P/Encke,e,11.3465,334.0168,187.2794,2.218050,0.2983644,0.84720981,224.7692,11/14.0/2025,2000,g 11.5,6.0
# From AJ 76, 1135
3D-A/Biela,e,7.2157,276.6824,192.1375,3.551341,0.1472704,0.76712980,51.0834,11/14.0/2025,2000,g 11.0,6.0
# From AJ 76, 1135
3D-B/Biela,e,7.8798,276.2009,192.2575,3.540392,0.1479541,0.76785759,20.5547,11/14.0/2025,2000,g 11.0,6.0
# From MPEC 2023-FK0
4P/Faye,e,8.0010,192.9026,207.1547,3.830394,0.1314737,0.57613392,200.7745,11/14.0/2025,2000,g  8.0,6.0
# From MPEC 2022-WD2
6P/d'Arrest,e,19.5015,138.9517,178.0385,3.497715,0.1506702,0.61204149,229.0144,11/14.0/2025,2000,g  7.5,16.0
# From MPEC 2023-A50
7P/Pons-Winnecke,e,22.2752,93.0814,173.4675,3.358252,0.1601527,0.65852358,256.0694,11/14.0/2025,2000,g 10.0,6.0
# From MPEC 2022-HC2
8P/Tuttle,e,54.9832,270.1767,207.4803,5.705941,0.0723125,0.82076709,111.2251,11/14.0/2025,2000,g  8.0,8.0
# From MPC188415
9P/Tempel,e,10.5696,67.1572,184.4902,3.296215,0.1646951,0.46907721,225.4167,11/14.0/2025,2000,g  5.5,10.0
# From MPC185662
10P/Tempel,e,12.0272,117.7983,195.4814,3.064329,0.1837388,0.53738567,312.0195,11/14.0/2025,2000,g  5.0,10.0
# From MPEC 2024-R10
11P/Tempel-Swift-LINEAR,e,14.4316,238.8597,168.0586,3.282888,0.1656990,0.57739150,300.1977,11/14.0/2025,2000,g 17.0,4.0
# From MPEC 2025-UQ3
12P/Pons-Brooks,e,74.1838,255.8586,199.0177,17.25063,0.0137561,0.95470597,7.8663,11/14.0/2025,2000,g  5.0,6.0
# From MPC188415
13P/Olbers,e,44.6643,85.8462,64.4243,16.92491,0.0141552,0.93055543,7.1042,11/14.0/2025,2000,g  5.0,6.0
# From MPC188415
14P/Wolf,e,27.9175,202.0167,159.2041,4.256011,0.1122535,0.35657643,325.3089,11/14.0/2025,2000,g  5.5,12.0
# From MPEC 2022-ED3
15P/Finlay,e,6.7852,13.7490,347.8585,3.511335,0.1497945,0.71596007,237.4899,11/14.0/2025,2000,g 12.0,4.0
# From MPEC 2022-X67
16P/Brooks,e,3.0098,138.8166,245.3791,3.662490,0.1406175,0.48543760,234.9745,11/14.0/2025,2000,g  7.5,10.0
# From MPEC 2023-J29
17P/Holmes,e,19.0050,326.6021,24.6034,3.642114,0.1417992,0.42616679,245.3145,11/14.0/2025,2000,g 10.0,6.0
# From QJ 19, 80
18D/Perrine-Mrkos,e,17.662,158.450,238.190,3.87978,0.128971,0.5894584,56.992,11/14.0/2025,2000,g  9.0,4.0
# From MPC181187
19P/Borrelly,e,29.3128,74.2156,352.0141,3.608597,0.1437793,0.63768943,198.4959,11/14.0/2025,2000,g  4.5,10.0
# From MPC181187
21P/Giacobini-Zinner,e,32.0515,195.3146,172.9399,3.491624,0.1510646,0.71107983,35.2948,11/14.0/2025,2000,g  9.0,6.0
# From MPEC 2025-UQ3
22P/Kopff,e,4.9165,119.9953,163.2384,3.395008,0.1575589,0.56678534,208.4238,11/14.0/2025,2000,g  3.0,10.4
# From MPEC 2025-VD2
24P/Schaumasse,e,11.5022,78.2721,58.4833,4.058571,0.1205436,0.70828770,353.3288,11/14.0/2025,2000,g  6.5,14.0
# From MPEC 2024-TP3
26P/Grigg-Skjellerup,e,22.4413,211.5283,2.1155,3.014188,0.1883426,0.64069888,129.8955,11/14.0/2025,2000,g 12.0,16.0
# From MPC188415
28P/Neujmin,e,14.2895,346.4203,347.4345,6.979328,0.0534544,0.77251946,91.4245,11/14.0/2025,2000,g  8.5,6.0
# From MPEC 2025-VD2
29P/Schwassmann-Wachmann,e,9.3552,312.4019,51.9305,6.057677,0.0661066,0.04306017,158.0851,11/14.0/2025,2000,g  4.0,4.0
# From MPC188415
30P/Reinmuth,e,8.0535,117.2299,9.5340,3.736157,0.1364792,0.51444514,61.9243,11/14.0/2025,2000,g  9.5,6.0
# From MPEC 2025-UQ3
31P/Schwassmann-Wachmann,e,4.5498,114.1135,17.9708,4.230011,0.1132901,0.19358597,263.0252,11/14.0/2025,2000,g  5.0,8.0
# From MPC185663
32P/ComasSola,e,9.9190,54.5332,54.7277,4.555278,0.1013752,0.55532756,58.0137,11/14.0/2025,2000,g  6.5,8.0
# From MPC184416
33P/Daniel,e,22.2940,66.2791,20.2595,4.091362,0.1190974,0.45185905,43.8433,11/14.0/2025,2000,g 10.0,12.0
# From MPEC 2023-RF3
36P/Whipple,e,9.9446,181.8184,201.2057,4.141818,0.1169277,0.26793402,232.8682,11/14.0/2025,2000,g  8.5,6.0
# From MPEC 2025-VD2
37P/Forbes,e,8.9478,314.5458,330.0704,3.461649,0.1530310,0.53255120,61.0281,11/14.0/2025,2000,g 10.5,4.8
# From MPEC 2024-AF0
39P/Oterma,e,1.7357,289.0934,117.0103,6.958040,0.0536999,0.16728463,41.7315,11/14.0/2025,2000,g  7.0,6.0
# From MPC184416
40P/Vaisala,e,11.6409,128.8984,52.0496,4.946823,0.0895807,0.63135820,0.1847,11/14.0/2025,2000,g  5.5,12.0
# From MPEC 2023-SQ0
41P/Tuttle-Giacobini-Kresak,e,9.2165,140.9754,62.2067,3.087609,0.1816647,0.65976648,210.3258,11/14.0/2025,2000,g 10.0,16.0
# From MPC184416
42P/Neujmin,e,3.9884,150.1560,147.1262,4.879899,0.0914298,0.58408152,354.3366,11/14.0/2025,2000,g 13.0,6.0
# From MPEC 2025-VD2
43P/Wolf-Harrington,e,9.3300,243.9804,223.7883,4.331528,0.1093308,0.43604250,11.0876,11/14.0/2025,2000,g  8.0,6.0
# From MPEC 2024-F34
44P/Reinmuth,e,5.8957,286.4196,57.9773,3.687862,0.1391689,0.42668650,181.2362,11/14.0/2025,2000,g  8.3,6.0
# From MPEC 2025-VD2
47P/Ashbrook-Jackson,e,13.0394,356.8809,357.9184,4.116586,0.1180044,0.31801369,2.0055,11/14.0/2025,2000,g  1.0,11.2
# From MPEC 2025-VD2
48P/Johnson,e,12.2018,110.0637,216.7859,3.499238,0.1505719,0.42651385,38.5977,11/14.0/2025,2000,g 10.0,6.0
# From MPC188416
49P/Arend-Rigaux,e,19.0597,118.7908,332.9253,3.569029,0.1461770,0.59894855,31.7792,11/14.0/2025,2000,g 11.3,4.4
# From MPC188416
50P/Arend,e,19.1007,355.1445,49.3061,4.085969,0.1193333,0.52959883,65.6855,11/14.0/2025,2000,g  9.5,6.0
# From MPEC 2023-J29
51P/Harrington,e,5.4263,83.6580,269.2233,3.705412,0.1381813,0.54268228,157.6104,11/14.0/2025,2000,g 10.0,8.0
# From NK 3014
51P-A/Harrington,e,5.4261,269.2271,83.6341,3.706645,0.1381124,0.54287728,157.1752,11/14.0/2025,2000,g 10.0,8.0
# From MPEC 2023-XP6
52P/Harrington-Abell,e,10.2400,336.7447,139.6356,3.861817,0.1298723,0.54119297,194.7260,11/14.0/2025,2000,g 13.5,6.0
# From MPEC 2023-TM6
53P/VanBiesbroeck,e,6.6035,148.8502,134.3243,5.440352,0.0776718,0.54989879,271.6378,11/14.0/2025,2000,g  7.7,4.8
# From MPC181188
54P/deVico-Swift-NEAT,e,6.0655,358.5717,2.2917,3.795067,0.1333137,0.42803836,58.0512,11/14.0/2025,2000,g 10.0,6.0
# From MPEC 2023-TM6
56P/Slaughter-Burnham,e,8.1550,345.8753,44.2349,5.062840,0.0865192,0.50822586,293.7607,11/14.0/2025,2000,g  8.5,6.0
# From MPC188416
57P/duToit-Neujmin-Delporte,e,2.8544,188.7126,115.0826,3.440192,0.1544650,0.50172579,230.0645,11/14.0/2025,2000,g 12.5,6.0
# From MPEC 2023-A50
59P/Kearns-Kwee,e,9.3571,312.7265,127.6918,4.478359,0.1039982,0.47703438,271.3349,11/14.0/2025,2000,g  7.0,6.0
# From MPC182887
60P/Tsuchinshan,e,3.5798,267.3954,216.9119,3.529264,0.1486545,0.53369409,17.3029,11/14.0/2025,2000,g 11.5,6.0
# From MPEC 2024-JU4
61P/Shajn-Schaldach,e,5.9960,162.9572,221.7177,3.691074,0.1389872,0.42286525,155.3637,11/14.0/2025,2000,g  6.0,10.0
# From MPC182887
62P/Tsuchinshan,e,4.7365,68.6633,47.3421,3.371407,0.1592163,0.62474083,109.8164,11/14.0/2025,2000,g  8.0,10.0
# From MPEC 2025-UQ3
63P/Wild,e,19.6160,357.7668,168.7357,5.656897,0.0732549,0.65095201,342.8459,11/14.0/2025,2000,g 10.5,6.0
# From MPEC 2025-V36
65P/Gunn,e,9.1750,61.9727,213.6541,3.891669,0.1283809,0.24809021,19.3381,11/14.0/2025,2000,g  5.0,6.0
# From MPEC 2021-F20
66P/duToit,e,18.6461,21.8512,257.3547,6.070481,0.0658976,0.78492466,180.8012,11/14.0/2025,2000,g 12.0,3.6
# From MPEC 2024-C04
67P/Churyumov-Gerasimenko,e,3.8675,36.3061,22.2245,3.458695,0.1532271,0.64973704,225.5762,11/14.0/2025,2000,g 11.0,4.0
# From MPEC 2023-HD1
68P/Klemola,e,11.0972,175.0965,153.2018,4.964110,0.0891132,0.63563290,196.1184,11/14.0/2025,2000,g 10.0,4.0
# From MPEC 2024-C04
69P/Taylor,e,22.0612,104.8077,343.5262,3.879514,0.1289847,0.41468799,313.1256,11/14.0/2025,2000,g  9.5,12.0
# From MPEC 2023-VM5
70P/Kojima,e,6.6036,119.2360,1.8058,3.675051,0.1398972,0.45491374,205.7104,11/14.0/2025,2000,g 11.0,6.0
# From MPC181188
71P/Clark,e,9.2261,59.0323,210.6992,3.182315,0.1736158,0.48371872,178.8417,11/14.0/2025,2000,g  9.8,6.0
# From MPC106348
73P-BT/Schwassmann-Wachmann,e,10.6103,190.6078,77.6417,3.077744,0.1825388,0.69403893,214.3328,11/14.0/2025,2000,g 11.5,6.0
# From MPC188416
74P/Smirnova-Chernykh,e,6.0227,51.8018,59.9049,5.110438,0.0853133,0.05376427,347.5773,11/14.0/2025,2000,g  5.0,6.0
# From MPEC 2022-K19
